{
  "norad_id": 32393,
  "name": "COSMOS 2434 [GLONASS-M]",
  "history": [
    {
      "epoch": "2026-03-26T11:38:23.561088",
      "apogee_km": 19137.61704072711,
      "perigee_km": 19122.267299005853,
      "latitude_deg": -38.07782391528335,
      "longitude_deg": 153.859512320254,
      "semi_major_axis_km": 25508.07916986648,
      "eccentricity": 0.00030088,
      "inclination_deg": 64.3174,
      "raan_deg": 194.7028,
      "arg_perigee_deg": 65.629,
      "mean_anomaly_deg": 306.3532,
      "mean_motion_rev_day": 2.13101314
    }
  ]
}